OBJECT_NAME,OBJECT_ID,EPOCH,MEAN_MOTION,ECCENTRICITY,INCLINATION,RA_OF_ASC_NODE,ARG_OF_PERICENTER,MEAN_ANOMALY,EPHEMERIS_TYPE,CLASSIFICATION_TYPE,NORAD_CAT_ID,ELEMENT_SET_NO,REV_AT_EPOCH,BSTAR,MEAN_MOTION_DOT,MEAN_MOTION_DDOT
SCD 1,1993-009B,2026-06-04T18:04:03.362016,14.46114464,.0041959,24.9702,284.3530,6.6560,106.6620,0,U,22490,999,75931,.6939E-4,.439E-5,0
TECHSAT 1B (GO-32),1998-043D,2026-06-05T06:19:31.367136,14.24425989,.0000383,99.0065,148.7216,202.4180,157.6982,0,U,25397,999,44963,.49272796E-4,.67E-6,0
SCD 2,1998-060A,2026-06-05T06:48:21.377664,14.45520890,.00167057,24.9935,145.5677,358.2915,24.4494,0,U,25504,999,45860,.57644128E-4,.388E-5,0
DLR-TUBSAT,1999-029B,2026-06-04T04:54:09.294336,14.52423384,.00148162,98.6692,150.2812,33.8590,326.3547,0,U,25757,999,43136,.45301378E-4,.136E-5,0
TERRA,1999-068A,2026-06-05T05:38:13.335648,14.61093305,.00008321,97.9461,206.2545,255.4360,146.5617,0,U,25994,999,40786,.95145711E-4,.423E-5,0
MAROC-TUBSAT,2001-056D,2026-06-05T06:29:08.870784,13.70261894,.00199618,99.8078,332.9055,171.2984,7.6201,0,U,27004,999,22455,.18529517E-4,-.3E-6,0
AQUA,2002-022A,2026-06-05T07:00:53.374752,14.62139181,.00015688,98.4271,125.3381,55.7651,50.5025,0,U,27424,999,28153,.18131385E-3,.862E-5,0
SHIYAN-1 (SY-1),2004-012A,2026-06-05T05:50:26.237472,15.33444017,.0006544,97.8688,233.5390,70.7625,289.4323,0,U,28220,999,20926,.40824855E-3,.13126E-3,0
AURA,2004-026A,2026-06-05T05:00:53.861472,14.61310087,.0001376,98.3412,112.5637,70.1197,290.0151,0,U,28376,999,16446,.18478737E-3,.864E-5,0
IRS-P5 (CARTOSAT-1),2005-017A,2026-06-05T01:34:40.542528,14.91016323,.00026741,97.5312,179.6799,96.0603,264.0921,0,U,28649,999,14201,.15879761E-3,.1518E-4,0
SINAH 1,2005-043D,2026-06-05T07:11:41.398080,14.64149362,.00134735,98.2846,290.5530,317.3384,42.6770,0,U,28893,999,9878,.78392974E-4,.363E-5,0
RESURS-DK 1,2006-021A,2026-06-05T00:06:16.666848,15.13160902,.00061257,69.9334,11.0884,302.3311,57.7262,0,U,29228,999,10073,.1580935E-3,.2703E-4,0
ARIRANG-2 (KOMPSAT-2),2006-031A,2026-06-05T08:22:25.254624,14.64652267,.00157929,97.8303,341.3682,108.7482,12.6453,0,U,29268,999,5974,.79698129E-4,.379E-5,0
LAPAN-TUBSAT,2007-001A,2026-06-05T06:26:06.525312,14.85936662,.00110299,98.1340,155.2237,220.6057,139.4336,0,U,29709,999,4938,.46189705E-4,.346E-5,0
HAIYANG-1B,2007-010A,2026-06-05T04:31:21.407808,14.31023783,.00123969,98.3490,138.4992,234.1117,125.8917,0,U,31113,999,99891,.52513601E-4,.96E-6,0
COSMO-SKYMED 1,2007-023A,2026-06-05T07:18:39.009888,14.97046684,.00014467,97.8862,348.0616,80.8486,279.2899,0,U,31598,999,2801,.18002542E-3,.2014E-4,0
TERRASAR-X,2007-026A,2026-06-04T16:14:31.233696,15.19148915,.00016197,97.4453,163.5606,90.1175,270.0246,0,U,31698,999,5132,.4517233E-4,.882E-5,0
WORLDVIEW-1 (WV-1),2007-041A,2026-06-05T05:05:53.939040,15.24127050,.00032649,97.3865,276.1306,53.2599,306.8938,0,U,32060,999,4105,.25965001E-3,.6243E-4,0
YAOGAN-3,2007-055A,2026-06-05T07:32:10.151232,14.90738160,.00020383,97.8157,186.3101,87.6181,272.5270,0,U,32289,999,410,.33861715E-3,.327E-4,0
COSMO-SKYMED 2,2007-059A,2026-06-05T06:42:00.980064,14.82161405,.00014494,97.8885,340.0501,87.4205,272.7174,0,U,32376,999,24,.62863615E-4,.448E-5,0
RADARSAT-2,2007-061A,2026-06-05T06:47:06.009216,14.29982480,.00013042,98.5776,163.3852,80.9278,279.2052,0,U,32382,999,96425,.45189784E-4,.73E-6,0
CARTOSAT-2A,2008-021A,2026-06-05T06:38:05.436384,14.79219403,.00124483,97.7634,205.3909,143.9751,216.2303,0,U,32783,999,97704,.74170122E-4,.501E-5,0
HUANJING 1A (HJ-1A),2008-041A,2026-06-05T07:10:29.508096,14.83957928,.00187947,97.6681,142.5979,172.7071,187.4420,0,U,33320,999,95664,.1468154E-3,.1173E-4,0
HUANJING 1B (HJ-1B),2008-041B,2026-06-05T06:18:14.152320,14.83296552,.00350528,97.6517,145.7705,220.9825,138.8754,0,U,33321,999,95664,.15200637E-3,.1205E-4,0
GEOEYE 1,2008-042A,2026-06-05T06:22:11.723808,14.64714091,.00055675,98.1236,230.3475,98.0282,262.1553,0,U,33331,999,94840,.10701606E-3,.522E-5,0
THEOS,2008-049A,2026-06-05T06:33:23.627232,14.20132585,.0001281,98.5571,213.9428,80.9915,279.1407,0,U,33396,999,91627,.16493795E-3,.309E-5,0
COSMO-SKYMED 3,2008-054A,2026-06-05T06:10:18.394176,15.06875453,.0014402,97.8292,14.6296,312.2765,47.7239,0,U,33412,999,95514,.24278818E-3,.3565E-4,0
YAOGAN-4,2008-061A,2026-06-05T05:25:32.155968,14.83176414,.00156623,97.9306,89.8251,107.7403,252.5521,0,U,33446,999,94389,.14028602E-3,.1093E-4,0
GOSAT (IBUKI),2009-002A,2026-06-05T06:35:31.063776,14.67538914,.00015556,98.0876,267.5059,88.6184,271.5198,0,U,33492,999,92971,.21023666E-4,.71E-6,0
DEIMOS-1,2009-041A,2026-06-05T07:35:54.228768,14.75223649,.00008243,97.7395,314.0592,138.9624,221.1648,0,U,35681,999,90513,.59426941E-4,.354E-5,0
