SCD 1                   
1 22490U 93009B   26155.75281669  .00000439  00000+0  69390-4 0  9997
2 22490  24.9702 284.3530 0041959   6.6560 106.6620 14.46114464759310
TECHSAT 1B (GO-32)      
1 25397U 98043D   26156.26355749  .00000067  00000+0  49273-4 0  9992
2 25397  99.0065 148.7216 0000383 202.4180 157.6982 14.24425989449639
SCD 2                   
1 25504U 98060A   26156.28358076  .00000388  00000+0  57644-4 0  9996
2 25504  24.9935 145.5677 0016705 358.2915  24.4494 14.45520890458605
DLR-TUBSAT              
1 25757U 99029B   26155.20427424  .00000136  00000+0  45301-4 0  9995
2 25757  98.6692 150.2812 0014816  33.8590 326.3547 14.52423384431368
TERRA                   
1 25994U 99068A   26156.23487657  .00000423  00000+0  95146-4 0  9990
2 25994  97.9461 206.2545 0000832 255.4360 146.5617 14.61093305407866
MAROC-TUBSAT            
1 27004U 01056D   26156.27024156 -.00000030  00000+0  18530-4 0  9996
2 27004  99.8078 332.9055 0019961 171.2984   7.6201 13.70261894224556
AQUA                    
1 27424U 02022A   26156.29228443  .00000862  00000+0  18131-3 0  9991
2 27424  98.4271 125.3381 0001568  55.7651  50.5025 14.62139181281536
SHIYAN-1 (SY-1)         
1 28220U 04012A   26156.24335923  .00013126  00000+0  40825-3 0  9996
2 28220  97.8688 233.5390 0006544  70.7625 289.4323 15.33444017209265
AURA                    
1 28376U 04026A   26156.20895673  .00000864  00000+0  18479-3 0  9997
2 28376  98.3412 112.5637 0001376  70.1197 290.0151 14.61310087164462
IRS-P5 (CARTOSAT-1)     
1 28649U 05017A   26156.06574702  .00001518  00000+0  15880-3 0  9992
2 28649  97.5312 179.6799 0002674  96.0603 264.0921 14.91016323142011
SINAH 1                 
1 28893U 05043D   26156.29978470  .00000363  00000+0  78393-4 0  9993
2 28893  98.2846 290.5530 0013473 317.3384  42.6770 14.64149362 98788
RESURS-DK 1             
1 29228U 06021A   26156.00435957  .00002703  00000+0  15809-3 0  9992
2 29228  69.9334  11.0884 0006125 302.3311  57.7262 15.13160902100736
ARIRANG-2 (KOMPSAT-2)   
1 29268U 06031A   26156.34890341  .00000379  00000+0  79698-4 0  9990
2 29268  97.8303 341.3682 0015792 108.7482  12.6453 14.64652267 59749
LAPAN-TUBSAT            
1 29709U 07001A   26156.26813108  .00000346  00000+0  46190-4 0  9990
2 29709  98.1340 155.2237 0011029 220.6057 139.4336 14.85936662 49387
HAIYANG-1B              
1 31113U 07010A   26156.18844222  .00000096  00000+0  52514-4 0  9993
2 31113  98.3490 138.4992 0012396 234.1117 125.8917 14.31023783998911
COSMO-SKYMED 1          
1 31598U 07023A   26156.30461817  .00002014  00000+0  18003-3 0  9999
2 31598  97.8862 348.0616 0001446  80.8486 279.2899 14.97046684 28011
TERRASAR-X              
1 31698U 07026A   26155.67675039  .00000882  00000+0  45172-4 0  9994
2 31698  97.4453 163.5606 0001619  90.1175 270.0246 15.19148915 51324
WORLDVIEW-1 (WV-1)      
1 32060U 07041A   26156.21242985  .00006243  00000+0  25965-3 0  9990
2 32060  97.3865 276.1306 0003264  53.2599 306.8938 15.24127050 41058
YAOGAN-3                
1 32289U 07055A   26156.31400638  .00003270  00000+0  33862-3 0  9992
2 32289  97.8157 186.3101 0002038  87.6181 272.5270 14.90738160  4106
COSMO-SKYMED 2          
1 32376U 07059A   26156.27917801  .00000448  00000+0  62864-4 0  9992
2 32376  97.8885 340.0501 0001449  87.4205 272.7174 14.82161405   243
RADARSAT-2              
1 32382U 07061A   26156.28270844  .00000073  00000+0  45190-4 0  9999
2 32382  98.5776 163.3852 0001304  80.9278 279.2052 14.29982480964252
CARTOSAT-2A             
1 32783U 08021A   26156.27645181  .00000501  00000+0  74170-4 0  9996
2 32783  97.7634 205.3909 0012448 143.9751 216.2303 14.79219403977042
HUANJING 1A (HJ-1A)     
1 33320U 08041A   26156.29895264  .00001173  00000+0  14682-3 0  9994
2 33320  97.6681 142.5979 0018794 172.7071 187.4420 14.83957928956643
HUANJING 1B (HJ-1B)     
1 33321U 08041B   26156.26266380  .00001205  00000+0  15201-3 0  9997
2 33321  97.6517 145.7705 0035052 220.9825 138.8754 14.83296552956642
GEOEYE 1                
1 33331U 08042A   26156.26541347  .00000522  00000+0  10702-3 0  9990
2 33331  98.1236 230.3475 0005567  98.0282 262.1553 14.64714091948406
THEOS                   
1 33396U 08049A   26156.27319013  .00000309  00000+0  16494-3 0  9999
2 33396  98.5571 213.9428 0001281  80.9915 279.1407 14.20132585916270
COSMO-SKYMED 3          
1 33412U 08054A   26156.25715734  .00003565  00000+0  24279-3 0  9999
2 33412  97.8292  14.6296 0014402 312.2765  47.7239 15.06875453955147
YAOGAN-4                
1 33446U 08061A   26156.22606662  .00001093  00000+0  14029-3 0  9996
2 33446  97.9306  89.8251 0015662 107.7403 252.5521 14.83176414943895
GOSAT (IBUKI)           
1 33492U 09002A   26156.27466509  .00000071  00000+0  21024-4 0  9991
2 33492  98.0876 267.5059 0001555  88.6184 271.5198 14.67538914929715
DEIMOS-1                
1 35681U 09041A   26156.31659987  .00000354  00000+0  59427-4 0  9997
2 35681  97.7395 314.0592 0000824 138.9624 221.1648 14.75223649905131
